{
  "type": "FeatureCollection",
  "features": [
    {
      "type": "Feature",
      "properties": {
        "norad_id": 30066,
        "name": "FENGYUN 1C DEB",
        "group": "fengyun-1c-debris",
        "lat": -58.96552089679519,
        "lon": -1.814557287580665,
        "alt_km": 789.0925367036807,
        "timestamp": "2025-12-19T06:59:44.182057+00:00",
        "meta_object_name": "FENGYUN 1C DEB",
        "meta_object_id": "1999-025PT",
        "meta_epoch": "2025-12-18T23:04:52.461120",
        "meta_mean_motion": 14.1911401,
        "meta_eccentricity": 0.01167654,
        "meta_inclination": 98.6344,
        "meta_ra_of_asc_node": 343.2364,
        "meta_arg_of_pericenter": 243.7912,
        "meta_mean_anomaly": 171.32,
        "meta_ephemeris_type": 0,
        "meta_classification_type": "U",
        "meta_norad_cat_id": 30066,
        "meta_element_set_no": 999,
        "meta_rev_at_epoch": 97925,
        "meta_bstar": 0.00012774548,
        "meta_mean_motion_dot": 2.42e-06,
        "meta_mean_motion_ddot": 0,
        "tle_line1": "1 30066U 99025PT  25352.96171830  .00000242  00000+0  12775-3 0  9994",
        "tle_line2": "2 30066  98.6344 343.2364 0116765 243.7912 171.3200 14.19114010979258"
      },
      "geometry": {
        "type": "Point",
        "coordinates": [
          -1.814557287580665,
          -58.96552089679519
        ]
      }
    },
    {
      "type": "Feature",
      "properties": {
        "norad_id": 30067,
        "name": "FENGYUN 1C DEB",
        "group": "fengyun-1c-debris",
        "lat": 78.57682467855528,
        "lon": -170.21396728803853,
        "alt_km": 726.204509830347,
        "timestamp": "2025-12-19T06:59:44.182068+00:00",
        "meta_object_name": "FENGYUN 1C DEB",
        "meta_object_id": "1999-025PU",
        "meta_epoch": "2025-12-18T15:53:47.320800",
        "meta_mean_motion": 14.43703722,
        "meta_eccentricity": 0.01515614,
        "meta_inclination": 98.7657,
        "meta_ra_of_asc_node": 238.9232,
        "meta_arg_of_pericenter": 0.4505,
        "meta_mean_anomaly": 52.5705,
        "meta_ephemeris_type": 0,
        "meta_classification_type": "U",
        "meta_norad_cat_id": 30067,
        "meta_element_set_no": 999,
        "meta_rev_at_epoch": 99284,
        "meta_bstar": 0.00031427251,
        "meta_mean_motion_dot": 1.173e-05,
        "meta_mean_motion_ddot": 0,
        "tle_line1": "1 30067U 99025PU  25352.66235325  .00001173  00000+0  31427-3 0  9991",
        "tle_line2": "2 30067  98.7657 238.9232 0151561   0.4505  52.5705 14.43703722992841"
      },
      "geometry": {
        "type": "Point",
        "coordinates": [
          -170.21396728803853,
          78.57682467855528
        ]
      }
    },
    {
      "type": "Feature",
      "properties": {
        "norad_id": 30068,
        "name": "FENGYUN 1C DEB",
        "group": "fengyun-1c-debris",
        "lat": -64.6537547218656,
        "lon": -0.11982996158852316,
        "alt_km": 748.0395116537593,
        "timestamp": "2025-12-19T06:59:44.182078+00:00",
        "meta_object_name": "FENGYUN 1C DEB",
        "meta_object_id": "1999-025PV",
        "meta_epoch": "2025-12-18T22:47:39.510240",
        "meta_mean_motion": 14.12053134,
        "meta_eccentricity": 0.0189674,
        "meta_inclination": 98.7368,
        "meta_ra_of_asc_node": 340.6034,
        "meta_arg_of_pericenter": 331.1709,
        "meta_mean_anomaly": 27.9085,
        "meta_ephemeris_type": 0,
        "meta_classification_type": "U",
        "meta_norad_cat_id": 30068,
        "meta_element_set_no": 999,
        "meta_rev_at_epoch": 97431,
        "meta_bstar": 0.00016196894,
        "meta_mean_motion_dot": 3.07e-06,
        "meta_mean_motion_ddot": 0,
        "tle_line1": "1 30068U 99025PV  25352.94976285  .00000307  00000+0  16197-3 0  9995",
        "tle_line2": "2 30068  98.7368 340.6034 0189674 331.1709  27.9085 14.12053134974318"
      },
      "geometry": {
        "type": "Point",
        "coordinates": [
          -0.11982996158852316,
          -64.6537547218656
        ]
      }
    },
    {
      "type": "Feature",
      "properties": {
        "norad_id": 30069,
        "name": "FENGYUN 1C DEB",
        "group": "fengyun-1c-debris",
        "lat": -36.22925988938807,
        "lon": 148.42845342830805,
        "alt_km": 917.9904555800576,
        "timestamp": "2025-12-19T06:59:44.182088+00:00",
        "meta_object_name": "FENGYUN 1C DEB",
        "meta_object_id": "1999-025PW",
        "meta_epoch": "2025-12-18T21:31:07.321728",
        "meta_mean_motion": 14.05228832,
        "meta_eccentricity": 0.00496277,
        "meta_inclination": 98.8016,
        "meta_ra_of_asc_node": 334.5633,
        "meta_arg_of_pericenter": 36.1337,
        "meta_mean_anomaly": 344.0386,
        "meta_ephemeris_type": 0,
        "meta_classification_type": "U",
        "meta_norad_cat_id": 30069,
        "meta_element_set_no": 999,
        "meta_rev_at_epoch": 96933,
        "meta_bstar": 0.000329847,
        "meta_mean_motion_dot": 4.96e-06,
        "meta_mean_motion_ddot": 0,
        "tle_line1": "1 30069U 99025PW  25352.89661252  .00000496  00000+0  32985-3 0  9997",
        "tle_line2": "2 30069  98.8016 334.5633 0049627  36.1337 344.0386 14.05228832969333"
      },
      "geometry": {
        "type": "Point",
        "coordinates": [
          148.42845342830805,
          -36.22925988938807
        ]
      }
    },
    {
      "type": "Feature",
      "properties": {
        "norad_id": 30070,
        "name": "FENGYUN 1C DEB",
        "group": "fengyun-1c-debris",
        "lat": 61.5624810982024,
        "lon": -111.96703283100672,
        "alt_km": 1090.568324260964,
        "timestamp": "2025-12-19T06:59:44.182098+00:00",
        "meta_object_name": "FENGYUN 1C DEB",
        "meta_object_id": "1999-025PX",
        "meta_epoch": "2025-12-18T15:51:08.582400",
        "meta_mean_motion": 14.09958633,
        "meta_eccentricity": 0.03279548,
        "meta_inclination": 98.2863,
        "meta_ra_of_asc_node": 51.8395,
        "meta_arg_of_pericenter": 301.9023,
        "meta_mean_anomaly": 214.2688,
        "meta_ephemeris_type": 0,
        "meta_classification_type": "U",
        "meta_norad_cat_id": 30070,
        "meta_element_set_no": 999,
        "meta_rev_at_epoch": 95962,
        "meta_bstar": 0.0011680441,
        "meta_mean_motion_dot": 3.353e-05,
        "meta_mean_motion_ddot": 0,
        "tle_line1": "1 30070U 99025PX  25352.66051600  .00003353  00000+0  11680-2 0  9997",
        "tle_line2": "2 30070  98.2863  51.8395 0327954 301.9023 214.2688 14.09958633959627"
      },
      "geometry": {
        "type": "Point",
        "coordinates": [
          -111.96703283100672,
          61.5624810982024
        ]
      }
    },
    {
      "type": "Feature",
      "properties": {
        "norad_id": 30071,
        "name": "FENGYUN 1C DEB",
        "group": "fengyun-1c-debris",
        "lat": -71.95623348417425,
        "lon": -115.133105238958,
        "alt_km": 752.0110382029925,
        "timestamp": "2025-12-19T06:59:44.182108+00:00",
        "meta_object_name": "FENGYUN 1C DEB",
        "meta_object_id": "1999-025PY",
        "meta_epoch": "2025-12-18T13:21:45.531072",
        "meta_mean_motion": 14.52247794,
        "meta_eccentricity": 0.00387621,
        "meta_inclination": 98.6589,
        "meta_ra_of_asc_node": 92,
        "meta_arg_of_pericenter": 92.1746,
        "meta_mean_anomaly": 282.8847,
        "meta_ephemeris_type": 0,
        "meta_classification_type": "U",
        "meta_norad_cat_id": 30071,
        "meta_element_set_no": 999,
        "meta_rev_at_epoch": 98311,
        "meta_bstar": 0.0018031059,
        "meta_mean_motion_dot": 7.352e-05,
        "meta_mean_motion_ddot": 0,
        "tle_line1": "1 30071U 99025PY  25352.55677698  .00007352  00000+0  18031-2 0  9997",
        "tle_line2": "2 30071  98.6589  92.0000 0038762  92.1746 282.8847 14.52247794983110"
      },
      "geometry": {
        "type": "Point",
        "coordinates": [
          -115.133105238958,
          -71.95623348417425
        ]
      }
    },
    {
      "type": "Feature",
      "properties": {
        "norad_id": 30072,
        "name": "FENGYUN 1C DEB",
        "group": "fengyun-1c-debris",
        "lat": -57.26940121307785,
        "lon": -52.475183856182625,
        "alt_km": 731.1571756553558,
        "timestamp": "2025-12-19T06:59:44.182118+00:00",
        "meta_object_name": "FENGYUN 1C DEB",
        "meta_object_id": "1999-025PZ",
        "meta_epoch": "2025-12-18T21:32:10.442976",
        "meta_mean_motion": 14.3788814,
        "meta_eccentricity": 0.00599585,
        "meta_inclination": 99.0757,
        "meta_ra_of_asc_node": 141.5087,
        "meta_arg_of_pericenter": 254.7282,
        "meta_mean_anomaly": 104.727,
        "meta_ephemeris_type": 0,
        "meta_classification_type": "U",
        "meta_norad_cat_id": 30072,
        "meta_element_set_no": 999,
        "meta_rev_at_epoch": 97259,
        "meta_bstar": 0.0023837186,
        "meta_mean_motion_dot": 7.303e-05,
        "meta_mean_motion_ddot": 0,
        "tle_line1": "1 30072U 99025PZ  25352.89734309  .00007303  00000+0  23837-2 0  9994",
        "tle_line2": "2 30072  99.0757 141.5087 0059958 254.7282 104.7270 14.37888140972590"
      },
      "geometry": {
        "type": "Point",
        "coordinates": [
          -52.475183856182625,
          -57.26940121307785
        ]
      }
    }
  ]
}